start=new Date('2022-12-25T00:00:00.000Z').valueOf();
sats=[{"MEAN_MOTION":"15.06396687","TLE_LINE1":"1 48466U 21040AQ  22358.87508869  .00000178  00000-0  30855-4 0  9997","PERIOD":"95.592","MEAN_ELEMENT_THEORY":"SGP4","LAUNCH_DATE":"2021-05-09","NORAD_CAT_ID":"48466","ECCENTRICITY":"0.00024250","OBJECT_TYPE":"PAYLOAD","CLASSIFICATION_TYPE":"U","REF_FRAME":"TEME","ARG_OF_PERICENTER":"32.1898","TLE_LINE2":"2 48466  53.0553  47.6140 0002425  32.1898 327.9238 15.06396687 90034","OBJECT_NAME":"STARLINK-2687","EPHEMERIS_TYPE":"0","OBJECT_ID":"2021-040AQ","ELEMENT_SET_NO":"999","SITE":"AFETR","GP_ID":"221378913","MEAN_MOTION_DOT":"0.00000178","FILE":"3721442","COUNTRY_CODE":"US","DECAY_DATE":null,"BSTAR":"0.00003085500000","PERIAPSIS":"545.544","EPOCH":"2022-12-24T21:00:07.662816","INCLINATION":"53.0553","REV_AT_EPOCH":"9003","TIME_SYSTEM":"UTC","MEAN_MOTION_DDOT":"0.0000000000000","RA_OF_ASC_NODE":"47.6140","SEMIMAJOR_AXIS":"6925.359","MEAN_ANOMALY":"327.9238","CENTER_NAME":"EARTH","RCS_SIZE":"LARGE","APOAPSIS":"548.903"},{"ECCENTRICITY":"0.00017120","OBJECT_TYPE":"PAYLOAD","CLASSIFICATION_TYPE":"U","ARG_OF_PERICENTER":"53.1428","REF_FRAME":"TEME","TLE_LINE2":"2 48467  53.0515  47.8064 0001712  53.1428 306.9718 15.06409283 90026","OBJECT_NAME":"STARLINK-2659","OBJECT_ID":"2021-040AR","EPHEMERIS_TYPE":"0","SITE":"AFETR","ELEMENT_SET_NO":"999","GP_ID":"221379663","MEAN_MOTION":"15.06409283","TLE_LINE1":"1 48467U 21040AR  22358.83454072  .00002444  00000-0  18288-3 0  9993","PERIOD":"95.592","MEAN_ELEMENT_THEORY":"SGP4","LAUNCH_DATE":"2021-05-09","NORAD_CAT_ID":"48467","TIME_SYSTEM":"UTC","MEAN_MOTION_DDOT":"0.0000000000000","RA_OF_ASC_NODE":"47.8064","CENTER_NAME":"EARTH","SEMIMAJOR_AXIS":"6925.320","MEAN_ANOMALY":"306.9718","APOAPSIS":"548.371","RCS_SIZE":"LARGE","MEAN_MOTION_DOT":"0.00002444","FILE":"3721442","COUNTRY_CODE":"US","BSTAR":"0.00018288000000","DECAY_DATE":null,"PERIAPSIS":"545.999","EPOCH":"2022-12-24T20:01:44.318208","INCLINATION":"53.0515","REV_AT_EPOCH":"9002"},{"GP_ID":"221378411","ELEMENT_SET_NO":"999","SITE":"AFETR","EPHEMERIS_TYPE":"0","OBJECT_ID":"2021-040AS","ARG_OF_PERICENTER":"45.4632","REF_FRAME":"TEME","OBJECT_NAME":"STARLINK-2685","TLE_LINE2":"2 48468  53.0577  47.5918 0001889  45.4632 314.6511 15.06406328 90031","CLASSIFICATION_TYPE":"U","OBJECT_TYPE":"PAYLOAD","ECCENTRICITY":"0.00018890","LAUNCH_DATE":"2021-05-09","NORAD_CAT_ID":"48468","MEAN_ELEMENT_THEORY":"SGP4","PERIOD":"95.592","TLE_LINE1":"1 48468U 21040AS  22358.88245329  .00000406  00000-0  46181-4 0  9992","MEAN_MOTION":"15.06406328","RCS_SIZE":"LARGE","APOAPSIS":"548.502","SEMIMAJOR_AXIS":"6925.329","MEAN_ANOMALY":"314.6511","CENTER_NAME":"EARTH","RA_OF_ASC_NODE":"47.5918","TIME_SYSTEM":"UTC","MEAN_MOTION_DDOT":"0.0000000000000","REV_AT_EPOCH":"9003","EPOCH":"2022-12-24T21:10:43.964256","INCLINATION":"53.0577","BSTAR":"0.00004618100000","DECAY_DATE":null,"PERIAPSIS":"545.886","FILE":"3721442","COUNTRY_CODE":"US","MEAN_MOTION_DOT":"0.00000406"},{"TLE_LINE1":"1 48469U 21040AT  22358.63181592 -.00000261  00000-0  13822-5 0  9994","MEAN_MOTION":"15.06402451","LAUNCH_DATE":"2021-05-09","NORAD_CAT_ID":"48469","PERIOD":"95.592","MEAN_ELEMENT_THEORY":"SGP4","CLASSIFICATION_TYPE":"U","TLE_LINE2":"2 48469  53.0564  48.6927 0001551  67.0732 293.0421 15.06402451 89993","OBJECT_NAME":"STARLINK-2661","REF_FRAME":"TEME","ARG_OF_PERICENTER":"67.0732","ECCENTRICITY":"0.00015510","OBJECT_TYPE":"PAYLOAD","GP_ID":"221378661","EPHEMERIS_TYPE":"0","OBJECT_ID":"2021-040AT","ELEMENT_SET_NO":"999","SITE":"AFETR","PERIAPSIS":"546.132","BSTAR":"0.00000138220000","DECAY_DATE":null,"MEAN_MOTION_DOT":"-0.00000261","COUNTRY_CODE":"US","FILE":"3721442","REV_AT_EPOCH":"8999","INCLINATION":"53.0564","EPOCH":"2022-12-24T15:09:48.895488","MEAN_ANOMALY":"293.0421","SEMIMAJOR_AXIS":"6925.341","CENTER_NAME":"EARTH","APOAPSIS":"548.280","RCS_SIZE":"LARGE","MEAN_MOTION_DDOT":"0.0000000000000","TIME_SYSTEM":"UTC","RA_OF_ASC_NODE":"48.6927"},{"OBJECT_TYPE":"PAYLOAD","ECCENTRICITY":"0.00024920","REF_FRAME":"TEME","ARG_OF_PERICENTER":"48.5341","TLE_LINE2":"2 48470  53.0534  48.7222 0002492  48.5341 311.5862 15.06403321 89987","OBJECT_NAME":"STARLINK-2675","CLASSIFICATION_TYPE":"U","SITE":"AFETR","ELEMENT_SET_NO":"999","EPHEMERIS_TYPE":"0","OBJECT_ID":"2021-040AU","GP_ID":"221379413","MEAN_MOTION":"15.06403321","TLE_LINE1":"1 48470U 21040AU  22358.62718256 -.00000132  00000-0  10099-4 0  9997","MEAN_ELEMENT_THEORY":"SGP4","PERIOD":"95.592","NORAD_CAT_ID":"48470","LAUNCH_DATE":"2021-05-09","RA_OF_ASC_NODE":"48.7222","TIME_SYSTEM":"UTC","MEAN_MOTION_DDOT":"0.0000000000000","APOAPSIS":"548.929","RCS_SIZE":"LARGE","SEMIMAJOR_AXIS":"6925.338","CENTER_NAME":"EARTH","MEAN_ANOMALY":"311.5862","FILE":"3721442","COUNTRY_CODE":"US","MEAN_MOTION_DOT":"-0.00000132","DECAY_DATE":null,"BSTAR":"0.00001009900000","PERIAPSIS":"545.478","EPOCH":"2022-12-24T15:03:08.573184","INCLINATION":"53.0534","REV_AT_EPOCH":"8998"},{"GP_ID":"221379164","EPHEMERIS_TYPE":"0","OBJECT_ID":"2021-040AV","ELEMENT_SET_NO":"999","SITE":"AFETR","CLASSIFICATION_TYPE":"U","OBJECT_NAME":"STARLINK-2684","TLE_LINE2":"2 48471  53.0556  48.7438 0001989  37.5943 322.5185 15.06403586 89980","ARG_OF_PERICENTER":"37.5943","REF_FRAME":"TEME","ECCENTRICITY":"0.00019890","OBJECT_TYPE":"PAYLOAD","LAUNCH_DATE":"2021-05-09","NORAD_CAT_ID":"48471","PERIOD":"95.592","MEAN_ELEMENT_THEORY":"SGP4","TLE_LINE1":"1 48471U 21040AV  22358.62075088  .00000652  00000-0  62660-4 0  9994","MEAN_MOTION":"15.06403586","MEAN_ANOMALY":"322.5185","SEMIMAJOR_AXIS":"6925.338","CENTER_NAME":"EARTH","APOAPSIS":"548.580","RCS_SIZE":"LARGE","MEAN_MOTION_DDOT":"0.0000000000000","TIME_SYSTEM":"UTC","RA_OF_ASC_NODE":"48.7438","REV_AT_EPOCH":"8998","INCLINATION":"53.0556","EPOCH":"2022-12-24T14:53:52.876032","PERIAPSIS":"545.825","BSTAR":"0.00006266000000","DECAY_DATE":null,"MEAN_MOTION_DOT":"0.00000652","COUNTRY_CODE":"US","FILE":"3721442"},{"REV_AT_EPOCH":"8990","INCLINATION":"53.0524","EPOCH":"2022-12-24T03:18:34.933248","PERIAPSIS":"546.226","BSTAR":"0.00041028000000","DECAY_DATE":null,"COUNTRY_CODE":"US","FILE":"3721189","MEAN_MOTION_DOT":"0.00005836","APOAPSIS":"548.150","RCS_SIZE":"LARGE","CENTER_NAME":"EARTH","SEMIMAJOR_AXIS":"6925.323","MEAN_ANOMALY":"269.4139","RA_OF_ASC_NODE":"50.9277","MEAN_MOTION_DDOT":"0.0000000000000","TIME_SYSTEM":"UTC","NORAD_CAT_ID":"48472","LAUNCH_DATE":"2021-05-09","MEAN_ELEMENT_THEORY":"SGP4","PERIOD":"95.592","TLE_LINE1":"1 48472U 21040AW  22358.13790432  .00005836  00000-0  41028-3 0  9991","MEAN_MOTION":"15.06408355","GP_ID":"221346657","ELEMENT_SET_NO":"999","SITE":"AFETR","OBJECT_ID":"2021-040AW","EPHEMERIS_TYPE":"0","TLE_LINE2":"2 48472  53.0524  50.9277 0001389  90.7009 269.4139 15.06408355 89909","OBJECT_NAME":"STARLINK-2722","ARG_OF_PERICENTER":"90.7009","REF_FRAME":"TEME","CLASSIFICATION_TYPE":"U","OBJECT_TYPE":"PAYLOAD","ECCENTRICITY":"0.00013890"},{"PERIOD":"95.593","MEAN_ELEMENT_THEORY":"SGP4","LAUNCH_DATE":"2021-05-09","NORAD_CAT_ID":"48473","MEAN_MOTION":"15.06390163","TLE_LINE1":"1 48473U 21040AX  22358.83823443 -.00000733  00000-0 -30302-4 0  9995","EPHEMERIS_TYPE":"0","OBJECT_ID":"2021-040AX","SITE":"AFETR","ELEMENT_SET_NO":"999","GP_ID":"221378162","ECCENTRICITY":"0.00028860","OBJECT_TYPE":"PAYLOAD","CLASSIFICATION_TYPE":"U","OBJECT_NAME":"STARLINK-2658","TLE_LINE2":"2 48473  53.0573  47.7665 0002886  28.9921 331.1228 15.06390163 90015","ARG_OF_PERICENTER":"28.9921","REF_FRAME":"TEME","INCLINATION":"53.0573","EPOCH":"2022-12-24T20:07:03.454752","REV_AT_EPOCH":"9001","MEAN_MOTION_DOT":"-0.00000733","COUNTRY_CODE":"US","FILE":"3721442","PERIAPSIS":"545.245","DECAY_DATE":null,"BSTAR":"-0.00003030200000","MEAN_MOTION_DDOT":"0.0000000000000","TIME_SYSTEM":"UTC","RA_OF_ASC_NODE":"47.7665","CENTER_NAME":"EARTH","SEMIMAJOR_AXIS":"6925.379","MEAN_ANOMALY":"331.1228","APOAPSIS":"549.242","RCS_SIZE":"LARGE"},{"CENTER_NAME":"EARTH","SEMIMAJOR_AXIS":"6925.363","MEAN_ANOMALY":"328.3499","APOAPSIS":"548.945","RCS_SIZE":"LARGE","TIME_SYSTEM":"UTC","MEAN_MOTION_DDOT":"0.0000000000000","RA_OF_ASC_NODE":"47.6362","REV_AT_EPOCH":"9001","EPOCH":"2022-12-24T20:54:49.087008","INCLINATION":"53.0547","BSTAR":"0.00002744200000","DECAY_DATE":null,"PERIAPSIS":"545.512","MEAN_MOTION_DOT":"0.00000127","FILE":"3721442","COUNTRY_CODE":"US","GP_ID":"221378914","EPHEMERIS_TYPE":"0","OBJECT_ID":"2021-040AY","ELEMENT_SET_NO":"999","SITE":"AFETR","CLASSIFICATION_TYPE":"U","REF_FRAME":"TEME","ARG_OF_PERICENTER":"31.7640","OBJECT_NAME":"STARLINK-2697","TLE_LINE2":"2 48474  53.0547  47.6362 0002479  31.7640 328.3499 15.06395189 90019","ECCENTRICITY":"0.00024790","OBJECT_TYPE":"PAYLOAD","NORAD_CAT_ID":"48474","LAUNCH_DATE":"2021-05-09","PERIOD":"95.592","MEAN_ELEMENT_THEORY":"SGP4","TLE_LINE1":"1 48474U 21040AY  22358.87140147  .00000127  00000-0  27442-4 0  9999","MEAN_MOTION":"15.06395189"},{"MEAN_MOTION":"15.06405436","TLE_LINE1":"1 48475U 21040AZ  22358.84190945  .00001180  00000-0  98117-4 0  9995","MEAN_ELEMENT_THEORY":"SGP4","PERIOD":"95.592","LAUNCH_DATE":"2021-05-09","NORAD_CAT_ID":"48475","OBJECT_TYPE":"PAYLOAD","ECCENTRICITY":"0.00024670","TLE_LINE2":"2 48475  53.0543  47.7666 0002467  30.3531 329.7600 15.06405436 90011","OBJECT_NAME":"STARLINK-2619","ARG_OF_PERICENTER":"30.3531","REF_FRAME":"TEME","CLASSIFICATION_TYPE":"U","ELEMENT_SET_NO":"999","SITE":"AFETR","EPHEMERIS_TYPE":"0","OBJECT_ID":"2021-040AZ","GP_ID":"221379664","COUNTRY_CODE":"US","FILE":"3721442","MEAN_MOTION_DOT":"0.00001180","PERIAPSIS":"545.488","BSTAR":"0.00009811700000","DECAY_DATE":null,"INCLINATION":"53.0543","EPOCH":"2022-12-24T20:12:20.976480","REV_AT_EPOCH":"9001","RA_OF_ASC_NODE":"47.7666","MEAN_MOTION_DDOT":"0.0000000000000","TIME_SYSTEM":"UTC","APOAPSIS":"548.905","RCS_SIZE":"LARGE","SEMIMAJOR_AXIS":"6925.332","MEAN_ANOMALY":"329.7600","CENTER_NAME":"EARTH"}];
